[{"OBJECT_NAME":"ONEWEB-0514","OBJECT_ID":"2022-138V","EPOCH":"2026-03-09T16:49:13.211904","MEAN_MOTION":13.19725308,"ECCENTRICITY":0.00016696,"INCLINATION":87.923,"RA_OF_ASC_NODE":324.7865,"ARG_OF_PERICENTER":76.01,"MEAN_ANOMALY":284.1218,"EPHEMERIS_TYPE":0,"CLASSIFICATION_TYPE":"U","NORAD_CAT_ID":54132,"ELEMENT_SET_NO":999,"REV_AT_EPOCH":16370,"BSTAR":-0.00056875292,"MEAN_MOTION_DOT":-2.15e-6,"MEAN_MOTION_DDOT":0},{"OBJECT_NAME":"THOR ABLESTAR DEB","OBJECT_ID":"1961-015GZ","EPOCH":"2026-03-09T22:21:37.506240","MEAN_MOTION":13.59537467,"ECCENTRICITY":0.02061167,"INCLINATION":65.8715,"RA_OF_ASC_NODE":269.4748,"ARG_OF_PERICENTER":272.8274,"MEAN_ANOMALY":200.5049,"EPHEMERIS_TYPE":0,"CLASSIFICATION_TYPE":"U","NORAD_CAT_ID":648,"ELEMENT_SET_NO":999,"REV_AT_EPOCH":18548,"BSTAR":0.00052829081,"MEAN_MOTION_DOT":3.73e-6,"MEAN_MOTION_DDOT":0}]
